NORAD_CAT_ID,OBJECT_NAME,OBJECT_TYPE,EPOCH,MEAN_MOTION,ECCENTRICITY,INCLINATION,RA_OF_ASC_NODE,ARG_OF_PERICENTER,MEAN_ANOMALY,BSTAR,MEAN_MOTION_DOT,MEAN_MOTION_DDOT,TLE_LINE0,TLE_LINE1,TLE_LINE2,SEMIMAJOR_AXIS,PERIOD,APOGEE,PERIGEE,DECAYED
55785.0,STARLINK-5818,PAYLOAD,2023-04-16 21:45:08,15.6991658,0.0003253,70.0022,31.0614,268.8276,91.2547,-2.9768e-06,-5.7e-06,0.0,0 STARLINK-5818,1 55785U 23028AW  23106.90635154 -.00000570  00000-0 -29768-5 0  9991,2 55785  70.0022  31.0614 0003253 268.8276  91.2547 15.69916580  7601,6737.273,91.725,361.329,356.946,0.0
55785.0,STARLINK-5818,PAYLOAD,2023-04-17 05:23:53,15.69929665,0.000259,70.0026,30.1692,249.9562,110.1355,2.009e-05,2.204e-05,0.0,0 STARLINK-5818,1 55785U 23028AW  23107.22493036  .00002204  00000-0  20090-4 0  9990,2 55785  70.0026  30.1692 0002590 249.9562 110.1355 15.69929665  7653,6737.235,91.724,360.845,357.355,0.0
55785.0,STARLINK-5818,PAYLOAD,2023-04-17 20:41:25,15.69913573,0.0003798,70.0025,28.3761,267.3917,92.6844,-3.7904e-06,-6.68e-06,0.0,0 STARLINK-5818,1 55785U 23028AW  23107.86210452 -.00000668  00000-0 -37904-5 0  9996,2 55785  70.0025  28.3761 0003798 267.3917  92.6844 15.69913573  7745,6737.281,91.725,361.705,356.587,0.0
55785.0,STARLINK-5818,PAYLOAD,2023-04-18 01:16:40,15.69928331,0.000331,70.0017,27.8414,256.3781,103.7046,2.1294e-05,2.349e-05,0.0,0 STARLINK-5818,1 55785U 23028AW  23108.05325033  .00002349  00000-0  21294-4 0  9990,2 55785  70.0017  27.8414 0003310 256.3781 103.7046 15.69928331  7771,6737.239,91.724,361.334,356.874,0.0
55785.0,STARLINK-5818,PAYLOAD,2023-04-18 04:20:10,15.69933374,0.0003452,70.0011,27.4807,263.596,96.4843,1.8381e-05,1.999e-05,0.0,0 STARLINK-5818,1 55785U 23028AW  23108.18067926  .00001999  00000-0  18381-4 0  9991,2 55785  70.0011  27.4807 0003452 263.5960  96.4843 15.69933374  7803,6737.225,91.724,361.415,356.764,0.0
55785.0,STARLINK-5818,PAYLOAD,2023-04-18 18:05:57,15.6992834,0.000302,70.0021,25.8686,258.6532,101.4325,1.0937e-05,1.103e-05,0.0,0 STARLINK-5818,1 55785U 23028AW  23108.75413492  .00001103  00000-0  10937-4 0  9993,2 55785  70.0021  25.8686 0003020 258.6532 101.4325 15.69928340  7890,6737.239,91.724,361.139,357.069,0.0
55785.0,STARLINK-5818,PAYLOAD,2023-04-19 04:48:12,15.69938752,0.0003007,70.0018,24.6139,260.2295,99.8561,2.9799e-05,3.374e-05,0.0,0 STARLINK-5818,1 55785U 23028AW  23109.20014555  .00003374  00000-0  29799-4 0  9999,2 55785  70.0018  24.6139 0003007 260.2295  99.8561 15.69938752  7953,6737.209,91.723,361.1,357.048,0.0
55785.0,STARLINK-5818,PAYLOAD,2023-04-20 03:44:30,15.69921203,0.0002882,70.0025,21.9272,254.8251,105.2627,1.0653e-05,1.068e-05,0.0,0 STARLINK-5818,1 55785U 23028AW  23110.15590584  .00001068  00000-0  10653-4 0  9993,2 55785  70.0025  21.9272 0002882 254.8251 105.2627 15.69921203  8106,6737.259,91.724,361.066,357.183,0.0
55785.0,STARLINK-5818,PAYLOAD,2023-04-21 04:12:31,15.69932344,0.0002698,70.0017,19.06,252.5109,107.5792,3.5659e-05,4.078e-05,0.0,0 STARLINK-5818,1 55785U 23028AW  23111.17536916  .00004078  00000-0  35659-4 0  9992,2 55785  70.0017  19.0600 0002698 252.5109 107.5792 15.69932344  8265,6737.228,91.724,360.91,357.275,0.0
55785.0,STARLINK-5818,PAYLOAD,2023-04-21 17:58:18,15.69927979,0.000315,70.0025,17.4498,270.8852,89.1983,1.1948e-05,1.224e-05,0.0,0 STARLINK-5818,1 55785U 23028AW  23111.74882112  .00001224  00000-0  11948-4 0  9992,2 55785  70.0025  17.4498 0003150 270.8852  89.1983 15.69927979  8369,6737.24,91.724,361.227,356.983,0.0
55785.0,STARLINK-5818,PAYLOAD,2023-04-22 00:05:18,15.69939403,0.000253,70.0009,16.7327,257.7849,102.3063,4.1357e-05,4.766e-05,0.0,0 STARLINK-5818,1 55785U 23028AW  23112.00368252  .00004766  00000-0  41357-4 0  9997,2 55785  70.0009  16.7327 0002530 257.7849 102.3063 15.69939403  8402,6737.207,91.723,360.777,357.368,0.0
55785.0,STARLINK-5818,PAYLOAD,2023-04-22 19:58:05,15.69918364,0.0003639,70.001,14.405,268.0377,92.0402,-2.1332e-05,-2.777e-05,0.0,0 STARLINK-5818,1 55785U 23028AW  23112.83200881 -.00002777  00000-0 -21332-4 0  9994,2 55785  70.0010  14.4050 0003639 268.0377  92.0402 15.69918364  8522,6737.268,91.725,361.584,356.681,0.0
55785.0,STARLINK-5818,PAYLOAD,2023-04-23 02:05:05,15.69927861,0.0003503,70.0001,13.6886,251.148,108.9336,7.2865e-06,6.64e-06,0.0,0 STARLINK-5818,1 55785U 23028AW  23113.08687222  .00000664  00000-0  72865-5 0  9999,2 55785  70.0001  13.6886 0003503 251.1480 108.9336 15.69927861  8578,6737.24,91.724,361.465,356.745,0.0
55785.0,STARLINK-5818,PAYLOAD,2023-04-23 17:22:34,15.69981895,0.0003401,70.0012,11.8967,261.6924,98.3886,0.00012626,0.00015032,0.0,0 STARLINK-5818,1 55785U 23028AW  23113.72400703  .00015032  00000-0  12626-3 0  9999,2 55785  70.0012  11.8967 0003401 261.6924  98.3886 15.69981895  8665,6737.086,91.721,361.242,356.66,0.0
55785.0,STARLINK-5818,PAYLOAD,2023-04-24 04:04:50,15.69948252,0.000382,70.0016,10.643,265.4903,94.5856,2.0332e-05,2.235e-05,0.0,0 STARLINK-5818,1 55785U 23028AW  23114.17002620  .00002235  00000-0  20332-4 0  9990,2 55785  70.0016  10.6430 0003820 265.4903  94.5856 15.69948252  8749,6737.182,91.723,361.621,356.473,0.0
55785.0,STARLINK-5818,PAYLOAD,2023-04-25 03:01:11,15.69870622,0.0003814,70.0002,7.9556,341.7847,18.3212,-0.0001405,-0.00017037,0.0,0 STARLINK-5818,1 55785U 23028AW  23115.12582180 -.00017037  00000-0 -14050-3 0  9997,2 55785  70.0002   7.9556 0003814 341.7847  18.3212 15.69870622  8880,6737.404,91.727,361.839,356.7,0.0
55785.0,STARLINK-5818,PAYLOAD,2023-04-25 16:46:57,15.69873458,0.0003399,70.0018,6.3427,269.2927,90.7879,-0.00013218,-0.00016043,0.0,0 STARLINK-5818,1 55785U 23028AW  23115.69927824 -.00016043  00000-0 -13218-3 0  9998,2 55785  70.0018   6.3427 0003399 269.2927  90.7879 15.69873458  8971,6737.396,91.727,361.551,356.971,0.0
55785.0,STARLINK-5818,PAYLOAD,2023-04-26 01:57:27,15.69909452,0.0002797,70.0032,5.2672,255.5203,104.5683,3.5514e-05,4.057e-05,0.0,0 STARLINK-5818,1 55785U 23028AW  23116.08157295  .00004057  00000-0  35514-4 0  9993,2 55785  70.0032   5.2672 0002797 255.5203 104.5683 15.69909452  9043,6737.293,91.725,361.042,357.274,0.0
55785.0,STARLINK-5818,PAYLOAD,2023-04-26 15:43:13,15.69941973,0.0003727,69.9995,3.6552,261.6053,98.472,0.00015449,0.00018419,0.0,0 STARLINK-5818,1 55785U 23028AW  23116.65501562  .00018419  00000-0  15449-3 0  9997,2 55785  69.9995   3.6552 0003727 261.6053  98.4720 15.69941973  9139,6737.2,91.723,361.576,356.554,0.0
55785.0,STARLINK-5818,PAYLOAD,2023-04-27 16:11:14,15.69941154,0.0003363,70.0015,0.7899,263.8835,96.1977,2.2923e-05,2.546e-05,0.0,0 STARLINK-5818,1 55785U 23028AW  23117.67447640  .00002546  00000-0  22923-4 0  9996,2 55785  70.0015   0.7899 0003363 263.8835  96.1977 15.69941154  9281,6737.202,91.723,361.333,356.802,0.0
55785.0,STARLINK-5818,PAYLOAD,2023-04-28 01:21:45,15.69927982,0.0002891,70.001,359.7138,259.6257,100.4612,-8.2859e-06,-1.209e-05,0.0,0 STARLINK-5818,1 55785U 23028AW  23118.05678066 -.00001209  00000-0 -82859-5 0  9999,2 55785  70.0010 359.7138 0002891 259.6257 100.4612 15.69927982  9340,6737.24,91.724,361.053,357.157,0.0
55785.0,STARLINK-5818,PAYLOAD,2023-04-28 09:00:30,15.69933127,0.0003702,70.0014,358.8216,259.673,100.4049,2.2063e-05,2.442e-05,0.0,0 STARLINK-5818,1 55785U 23028AW  23118.37535827  .00002442  00000-0  22063-4 0  9999,2 55785  70.0014 358.8216 0003702 259.6730 100.4049 15.69933127  9408,6737.225,91.724,361.584,356.596,0.0
55785.0,STARLINK-5818,PAYLOAD,2023-04-29 01:49:48,15.69912348,0.0002848,70.0016,356.8502,254.3457,105.7425,-2.6416e-05,-3.385e-05,0.0,0 STARLINK-5818,1 55785U 23028AW  23119.07625088 -.00003385  00000-0 -26416-4 0  9991,2 55785  70.0016 356.8502 0002848 254.3457 105.7425 15.69912348  9503,6737.285,91.725,361.069,357.231,0.0
55785.0,STARLINK-5818,PAYLOAD,2023-04-29 17:07:18,15.69921118,0.0003304,69.9996,355.0595,261.7768,98.3053,1.3167e-05,1.371e-05,0.0,0 STARLINK-5818,1 55785U 23028AW  23119.71341298  .00001371  00000-0  13167-4 0  9990,2 55785  69.9996 355.0595 0003304 261.7768  98.3053 15.69921118  9605,6737.26,91.724,361.351,356.899,0.0
55785.0,STARLINK-5818,PAYLOAD,2023-04-30 02:17:49,15.69935264,0.0003618,69.9992,353.9838,265.2159,94.8624,3.6595e-05,4.192e-05,0.0,0 STARLINK-5818,1 55785U 23028AW  23120.09570658  .00004192  00000-0  36595-4 0  9991,2 55785  69.9992 353.9838 0003618 265.2159  94.8624 15.69935264  9667,6737.219,91.724,361.522,356.647,0.0
55785.0,STARLINK-5818,PAYLOAD,2023-04-30 17:35:21,15.69916443,0.0003342,69.999,352.1903,266.5635,93.5179,6.2919e-06,5.44e-06,0.0,0 STARLINK-5818,1 55785U 23028AW  23120.73288624  .00000544  00000-0  62919-5 0  9998,2 55785  69.9990 352.1903 0003342 266.5635  93.5179 15.69916443  9766,6737.273,91.725,361.39,356.886,0.0
55785.0,STARLINK-5818,PAYLOAD,2023-05-01 01:14:07,15.69918983,0.0002931,69.9997,351.2947,271.3369,88.7491,2.172e-05,2.399e-05,0.0,0 STARLINK-5818,1 55785U 23028AW  23121.05147119  .00002399  00000-0  21720-4 0  9991,2 55785  69.9997 351.2947 0002931 271.3369  88.7491 15.69918983  9823,6737.266,91.724,361.105,357.156,0.0
55785.0,STARLINK-5818,PAYLOAD,2023-05-01 18:03:22,15.69930849,0.0003499,69.9991,349.3232,266.6633,93.4163,2.2691e-05,2.517e-05,0.0,0 STARLINK-5818,1 55785U 23028AW  23121.75234789  .00002517  00000-0  22691-4 0  9998,2 55785  69.9991 349.3232 0003499 266.6633  93.4163 15.69930849  9928,6737.232,91.724,361.454,356.739,0.0
55785.0,STARLINK-5818,PAYLOAD,2023-05-01 19:35:08,15.69929431,0.0003517,69.9993,349.144,264.0037,96.0758,2.1665e-05,2.394e-05,0.0,0 STARLINK-5818,1 55785U 23028AW  23121.81606525  .00002394  00000-0  21665-4 0  9999,2 55785  69.9993 349.1440 0003517 264.0037  96.0758 15.69929431  9946,6737.236,91.724,361.47,356.731,0.0
55785.0,STARLINK-5818,PAYLOAD,2023-05-02 01:42:08,15.69937011,0.000356,69.9995,348.4278,264.5019,95.5771,4.3587e-05,5.034e-05,0.0,0 STARLINK-5818,1 55785U 23028AW  23122.07092903  .00005034  00000-0  43587-4 0  9998,2 55785  69.9995 348.4278 0003560 264.5019  95.5771 15.69937011  9988,6737.214,91.723,361.478,356.681,0.0
